     2.100          NAVIGATION                              RINEX VERSION / TYPE
fic2rin                                 01/10/2015 00:31:30 PGM / RUN BY / DATE
                                                            END OF HEADER
27 15  1  9  8  0  0.0  .430392101407D-04  .272848410532D-11  .000000000000D+00
     .100000000000D+03 -.691875000000D+02  .467305179422D-08  .297605866138D+01
    -.352598726749D-05  .179124332499D-02  .414997339249D-05  .515368408585D+04
     .460800000000D+06 -.428408384323D-07 -.478983644574D+00 -.484287738800D-07
     .966030685867D+00  .301906250000D+03  .175205659619D+00 -.821427072878D-08
    -.171792870148D-09  .100000000000D+01  .182600000000D+04  .000000000000D+00
     .240000000000D+01  .000000000000D+00  .139698386192D-08  .100000000000D+03
     .453606000000D+06  .400000000000D+01
28 15  1  9  8  0  0.0  .411182176322D-03  .261479726760D-11  .000000000000D+00
     .180000000000D+02  .708437500000D+02  .401731019424D-08 -.254352837413D+01
     .362284481525D-05  .197585786227D-01  .450201332569D-05  .515368860626D+04
     .460800000000D+06  .270083546638D-06 -.145548996935D+01  .106170773506D-06
     .987951062070D+00  .302125000000D+03 -.168225634930D+01 -.768996317498D-08
     .465019369923D-09  .100000000000D+01  .182600000000D+04  .000000000000D+00
     .240000000000D+01  .000000000000D+00 -.111758708954D-07  .180000000000D+02
     .453606000000D+06  .400000000000D+01
29 15  1  9  8  0  0.0  .584812834859D-03  .238742359215D-11  .000000000000D+00
     .170000000000D+02 -.731875000000D+02  .455126100686D-08 -.513363856442D+00
    -.366009771824D-05  .124101899564D-02  .448897480965D-05  .515357412720D+04
     .460800000000D+06  .558793544769D-07 -.422811695279D+00 -.111758708954D-07
     .972024918088D+00  .300343750000D+03 -.874906383294D+00 -.824355766298D-08
    -.166078346401D-09  .100000000000D+01  .182600000000D+04  .000000000000D+00
     .240000000000D+01  .000000000000D+00 -.977888703346D-08  .170000000000D+02
     .453606000000D+06  .400000000000D+01
30 15  1  9  8  0  0.0 -.864001922309D-04 -.227373675443D-12  .000000000000D+00
     .320000000000D+02  .392187500000D+02  .434303804782D-08  .802246573361D-01
     .208802521229D-05  .974475173280D-03  .109355896711D-04  .515362716293D+04
     .460800000000D+06  .558793544769D-08 -.249496087928D+01 -.260770320892D-07
     .957543873843D+00  .165531250000D+03  .311836355380D+01 -.794747390133D-08
    -.864321716755D-10  .100000000000D+01  .182600000000D+04  .000000000000D+00
     .240000000000D+01  .000000000000D+00  .325962901115D-08  .320000000000D+02
     .453606000000D+06  .400000000000D+01
31 15  1  9  8  0  0.0  .325832515955D-03 -.795807864051D-12  .000000000000D+00
     .700000000000D+02  .333437500000D+02  .396123642997D-08  .946040551072D-01
     .173784792423D-05  .831222231500D-02  .100508332253D-04  .515370959473D+04
     .460800000000D+06  .447034835815D-07 -.253908596591D+01 -.949949026108D-07
     .976785812353D+00  .191468750000D+03 -.577632954903D+00 -.784675542029D-08
    -.746459664470D-10  .100000000000D+01  .182600000000D+04  .000000000000D+00
     .240000000000D+01  .000000000000D+00 -.135041773319D-07  .700000000000D+02
     .453606000000D+06  .400000000000D+01
 8 15  1  9  7 59 44.0  .170860439539D-04  .227373675443D-12  .000000000000D+00
     .780000000000D+02  .494687500000D+02  .355871966353D-08  .144807175754D+01
     .254996120930D-05  .147750473116D-01  .105742365122D-04  .515220839691D+04
     .460784000000D+06 -.115483999252D-06 -.244185666189D+01  .204890966415D-06
     .995366179808D+00  .192312500000D+03 -.267592573432D+01 -.764246119633D-08
    -.193936649668D-09  .100000000000D+01  .182600000000D+04  .000000000000D+00
     .240000000000D+01  .630000000000D+02 -.465661287308D-08  .780000000000D+02
     .455976000000D+06  .400000000000D+01
19 15  1  9  7 59 44.0 -.495915301144D-03 -.147792889038D-11  .000000000000D+00
     .400000000000D+01 -.831875000000D+02  .460804908660D-08  .212602803408D+01
    -.431388616562D-05  .108278316911D-01  .486336648464D-05  .515368391228D+04
     .460784000000D+06 -.318512320518D-06 -.381991520532D+00 -.111758708954D-07
     .968327885646D+00  .292562500000D+03  .515833747849D+00 -.818498379457D-08
    -.229652423088D-09  .100000000000D+01  .182600000000D+04  .000000000000D+00
     .240000000000D+01  .000000000000D+00 -.149011611938D-07  .400000000000D+01
     .457956000000D+06  .400000000000D+01
 6 15  1  9  7 59 44.0  .467323698103D-04  .100044417195D-10  .000000000000D+00
     .120000000000D+02 -.651875000000D+02  .422731894194D-08 -.273304959563D+01
    -.339187681675D-05  .476616783999D-03  .111330300570D-04  .515368120384D+04
     .460784000000D+06  .931322574615D-08  .568411028007D+00 -.186264514923D-08
     .961840291617D+00  .166156250000D+03  .237194399852D+01 -.784389815841D-08
    -.539308178636D-10  .100000000000D+01  .182600000000D+04  .000000000000D+00
     .240000000000D+01  .000000000000D+00  .465661287308D-08  .120000000000D+02
     .459246000000D+06  .400000000000D+01
 6 15  1  9  9 59 44.0  .468040816486D-04  .100044417195D-10  .000000000000D+00
     .130000000000D+02 -.615000000000D+02  .431160816722D-08 -.168323280908D+01
    -.313855707645D-05  .477163004689D-03  .111591070890D-04  .515368033981D+04
     .467984000000D+06 -.372529029846D-08  .568354437947D+00 -.223517417908D-07
     .961839810317D+00  .161343750000D+03  .237230245002D+01 -.786818488434D-08
    -.478591363823D-10  .100000000000D+01  .182600000000D+04  .000000000000D+00
     .240000000000D+01  .000000000000D+00  .465661287308D-08  .130000000000D+02
     .460806000000D+06  .400000000000D+01
 8 15  1  9  9 59 44.0  .170874409378D-04  .227373675443D-12  .000000000000D+00
     .810000000000D+02  .431875000000D+02  .336906890667D-08  .249908565434D+01
     .224635004997D-05  .147747059818D-01  .104717910290D-04  .515221004105D+04
     .467984000000D+06 -.257045030594D-06 -.244191204796D+01 -.149011611938D-06
     .995366658182D+00  .193593750000D+03 -.267586986840D+01 -.734780606562D-08
     .714315468392D-12  .100000000000D+01  .182600000000D+04  .000000000000D+00
     .240000000000D+01  .630000000000D+02 -.465661287308D-08  .810000000000D+02
     .460806000000D+06  .400000000000D+01
19 15  1  9  9 59 44.0 -.495926011354D-03 -.147792889038D-11  .000000000000D+00
     .160000000000D+02 -.818437500000D+02  .454304637897D-08 -.310696719375D+01
    -.427663326263D-05  .108279393753D-01  .481680035591D-05  .515368359375D+04
     .467984000000D+06 -.126659870148D-06 -.382049803188D+00 -.162050127983D-06
     .968327154187D+00  .291250000000D+03  .515818959210D+00 -.801533387083D-08
    -.195008122871D-09  .100000000000D+01  .182600000000D+04  .000000000000D+00
     .240000000000D+01  .000000000000D+00 -.149011611938D-07  .160000000000D+02
     .460806000000D+06  .400000000000D+01
 1 15  1  9 10  0  0.0 -.103614293039D-04  .341060513165D-12  .000000000000D+00
     .880000000000D+02 -.489062500000D+02  .439446876155D-08  .176299779854D+01
    -.247918069363D-05  .378489587456D-02  .107157975435D-04  .515367615700D+04
     .468000000000D+06 -.502914190292D-07  .576888159902D+00  .108033418655D-06
     .961928973711D+00  .173375000000D+03  .430766405961D+00 -.788604277105D-08
    -.750031241812D-11  .100000000000D+01  .182600000000D+04  .000000000000D+00
     .240000000000D+01  .000000000000D+00  .558793544769D-08  .880000000000D+02
     .460806000000D+06  .400000000000D+01
 2 15  1  9 10  0  0.0  .540810637176D-03  .227373675443D-11  .000000000000D+00
     .840000000000D+02 -.738750000000D+02  .469733852015D-08  .242196561200D+01
    -.397861003876D-05  .141632959712D-01  .112913548946D-04  .515375427818D+04
     .468000000000D+06 -.856816768646D-07  .542332475399D+00 -.281259417534D-06
     .940538706355D+00  .149500000000D+03 -.234397949727D+01 -.791032949697D-08
    -.342871424828D-10  .100000000000D+01  .182600000000D+04  .000000000000D+00
     .240000000000D+01  .000000000000D+00 -.204890966415D-07  .840000000000D+02
     .460806000000D+06  .400000000000D+01
 3 15  1  9 10  0  0.0  .136356335133D-03  .256932253251D-10  .000000000000D+00
     .890000000000D+02  .434687500000D+02  .472198240381D-08 -.210201697824D+01
     .219605863094D-05  .952337402850D-03  .729970633984D-05  .515376971626D+04
     .468000000000D+06 -.130385160446D-07  .161737912018D+01  .502914190292D-07
     .958978186022D+00  .236500000000D+03 -.302267072484D+01 -.808640825993D-08
     .314298806093D-09  .100000000000D+01  .182600000000D+04  .000000000000D+00
     .240000000000D+01  .000000000000D+00  .558793544769D-08  .890000000000D+02
     .460806000000D+06  .400000000000D+01
 4 15  1  9 10  0  0.0 -.540260225534D-05 -.568434188608D-12  .000000000000D+00
     .850000000000D+02 -.536250000000D+02  .486163107788D-08  .161106460838D+01
    -.289455056190D-05  .109887057915D-01  .106655061245D-04  .515374548149D+04
     .468000000000D+06 -.266358256340D-06  .557777369072D+00 -.102445483208D-06
     .939557424795D+00  .164593750000D+03  .104944076101D+01 -.815748264904D-08
     .285726187357D-11  .100000000000D+01  .182600000000D+04  .000000000000D+00
     .240000000000D+01  .000000000000D+00 -.651925802231D-08  .850000000000D+02
     .460806000000D+06  .400000000000D+01
 5 15  1  9 10  0  0.0 -.295228790492D-03  .500222085975D-11  .000000000000D+00
     .830000000000D+02  .372812500000D+02  .495306345783D-08 -.153813590094D+01
     .191666185856D-05  .405394483823D-02  .760890543461D-05  .515374788475D+04
     .468000000000D+06  .521540641785D-07  .161216141951D+01 -.670552253723D-07
     .946271161089D+00  .225093750000D+03  .420447229063D+00 -.821034199370D-08
     .357157734196D-09  .100000000000D+01  .182600000000D+04  .000000000000D+00
     .240000000000D+01  .000000000000D+00 -.107102096081D-07  .830000000000D+02
     .460806000000D+06  .400000000000D+01
